start=new Date('2023-04-01T00:00:00.000Z').valueOf();
sats=[{"DECAY_DATE":null,"LAUNCH_DATE":"2022-09-05","COUNTRY_CODE":"US","MEAN_ANOMALY":"242.8830","OBJECT_NAME":"STARLINK-4724","EPHEMERIS_TYPE":"0","INCLINATION":"53.2179","OBJECT_ID":"2022-107C","APOAPSIS":"540.582","NORAD_CAT_ID":"53702","FILE":"3876586","MEAN_MOTION_DDOT":"0.0000000000000","BSTAR":"0.00001562600000","MEAN_MOTION_DOT":"-0.00000039","SEMIMAJOR_AXIS":"6917.887","CENTER_NAME":"EARTH","REV_AT_EPOCH":"3219","OBJECT_TYPE":"PAYLOAD","PERIAPSIS":"538.922","RCS_SIZE":"LARGE","PERIOD":"95.438","CLASSIFICATION_TYPE":"U","TLE_LINE1":"1 53702U 22107C   23090.79107275 -.00000039  00000-0  15626-4 0  9998","REF_FRAME":"TEME","SITE":"AFETR","RA_OF_ASC_NODE":"9.9386","MEAN_MOTION":"15.08837809","MEAN_ELEMENT_THEORY":"SGP4","ECCENTRICITY":"0.00012000","GP_ID":"229207999","ELEMENT_SET_NO":"999","EPOCH":"2023-03-31T18:59:08.685600","TIME_SYSTEM":"UTC","TLE_LINE2":"2 53702  53.2179   9.9386 0001200 117.2284 242.8830 15.08837809 32190","ARG_OF_PERICENTER":"117.2284"},{"GP_ID":"229193581","ECCENTRICITY":"0.00011210","MEAN_ELEMENT_THEORY":"SGP4","MEAN_MOTION":"15.08857921","ARG_OF_PERICENTER":"85.9418","TLE_LINE2":"2 53703  53.2180  27.2157 0001121  85.9418 274.1702 15.08857921 31905","TIME_SYSTEM":"UTC","EPOCH":"2023-03-31T06:02:09.510144","ELEMENT_SET_NO":"999","CLASSIFICATION_TYPE":"U","PERIOD":"95.436","RCS_SIZE":"LARGE","RA_OF_ASC_NODE":"27.2157","SITE":"AFETR","REF_FRAME":"TEME","TLE_LINE1":"1 53703U 22107D   23090.25149896  .00003531  00000-0  23969-3 0  9992","CENTER_NAME":"EARTH","SEMIMAJOR_AXIS":"6917.826","MEAN_MOTION_DOT":"0.00003531","BSTAR":"0.00023969000000","MEAN_MOTION_DDOT":"0.0000000000000","FILE":"3875975","PERIAPSIS":"538.915","OBJECT_TYPE":"PAYLOAD","REV_AT_EPOCH":"3190","OBJECT_ID":"2022-107D","INCLINATION":"53.2180","OBJECT_NAME":"STARLINK-4731","MEAN_ANOMALY":"274.1702","EPHEMERIS_TYPE":"0","COUNTRY_CODE":"US","LAUNCH_DATE":"2022-09-05","DECAY_DATE":null,"NORAD_CAT_ID":"53703","APOAPSIS":"540.466"},{"PERIAPSIS":"539.008","REV_AT_EPOCH":"3198","OBJECT_TYPE":"PAYLOAD","MEAN_MOTION_DOT":"0.00021263","CENTER_NAME":"EARTH","SEMIMAJOR_AXIS":"6917.895","FILE":"3876587","BSTAR":"0.00135020000000","MEAN_MOTION_DDOT":"0.0000000000000","APOAPSIS":"540.512","NORAD_CAT_ID":"53704","INCLINATION":"53.2190","OBJECT_NAME":"STARLINK-4714","EPHEMERIS_TYPE":"0","MEAN_ANOMALY":"263.8101","OBJECT_ID":"2022-107E","DECAY_DATE":null,"COUNTRY_CODE":"US","LAUNCH_DATE":"2022-09-05","TLE_LINE2":"2 53704  53.2190  25.1252 0001087  96.3015 263.8101 15.08835075 31982","ARG_OF_PERICENTER":"96.3015","TIME_SYSTEM":"UTC","EPOCH":"2023-03-31T19:52:51.310560","ELEMENT_SET_NO":"999","MEAN_ELEMENT_THEORY":"SGP4","GP_ID":"229208008","ECCENTRICITY":"0.00010870","MEAN_MOTION":"15.08835075","SITE":"AFETR","RA_OF_ASC_NODE":"25.1252","TLE_LINE1":"1 53704U 22107E   23090.82837165  .00021263  00000-0  13502-2 0  9992","REF_FRAME":"TEME","PERIOD":"95.438","CLASSIFICATION_TYPE":"U","RCS_SIZE":"LARGE"},{"CLASSIFICATION_TYPE":"U","PERIOD":"95.438","RCS_SIZE":"LARGE","RA_OF_ASC_NODE":"25.1015","SITE":"AFETR","REF_FRAME":"TEME","TLE_LINE1":"1 53705U 22107F   23090.82469311  .00011043  00000-0  71103-3 0  9994","GP_ID":"229207510","ECCENTRICITY":"0.00013410","MEAN_ELEMENT_THEORY":"SGP4","MEAN_MOTION":"15.08831075","ARG_OF_PERICENTER":"91.9481","TLE_LINE2":"2 53705  53.2185  25.1015 0001341  91.9481 268.1665 15.08831075 31984","TIME_SYSTEM":"UTC","ELEMENT_SET_NO":"999","EPOCH":"2023-03-31T19:47:33.484704","OBJECT_ID":"2022-107F","OBJECT_NAME":"STARLINK-4717","INCLINATION":"53.2185","EPHEMERIS_TYPE":"0","MEAN_ANOMALY":"268.1665","COUNTRY_CODE":"US","LAUNCH_DATE":"2022-09-05","DECAY_DATE":null,"NORAD_CAT_ID":"53705","APOAPSIS":"540.700","CENTER_NAME":"EARTH","SEMIMAJOR_AXIS":"6917.908","MEAN_MOTION_DOT":"0.00011043","BSTAR":"0.00071103000000","MEAN_MOTION_DDOT":"0.0000000000000","FILE":"3876587","PERIAPSIS":"538.845","OBJECT_TYPE":"PAYLOAD","REV_AT_EPOCH":"3198"},{"SITE":"AFETR","RA_OF_ASC_NODE":"25.0392","TLE_LINE1":"1 53706U 22107G   23090.81459675  .00000357  00000-0  40523-4 0  9995","REF_FRAME":"TEME","PERIOD":"95.438","CLASSIFICATION_TYPE":"U","RCS_SIZE":"LARGE","TLE_LINE2":"2 53706  53.2180  25.0392 0001603 121.1048 239.0102 15.08833098 31983","ARG_OF_PERICENTER":"121.1048","EPOCH":"2023-03-31T19:33:01.159200","ELEMENT_SET_NO":"999","TIME_SYSTEM":"UTC","MEAN_ELEMENT_THEORY":"SGP4","ECCENTRICITY":"0.00016030","GP_ID":"229207515","MEAN_MOTION":"15.08833098","APOAPSIS":"540.875","NORAD_CAT_ID":"53706","OBJECT_NAME":"STARLINK-4716","INCLINATION":"53.2180","EPHEMERIS_TYPE":"0","MEAN_ANOMALY":"239.0102","OBJECT_ID":"2022-107G","DECAY_DATE":null,"COUNTRY_CODE":"US","LAUNCH_DATE":"2022-09-05","PERIAPSIS":"538.658","REV_AT_EPOCH":"3198","OBJECT_TYPE":"PAYLOAD","MEAN_MOTION_DOT":"0.00000357","SEMIMAJOR_AXIS":"6917.901","CENTER_NAME":"EARTH","FILE":"3876587","MEAN_MOTION_DDOT":"0.0000000000000","BSTAR":"0.00004052300000"},{"NORAD_CAT_ID":"53707","APOAPSIS":"540.506","COUNTRY_CODE":"US","LAUNCH_DATE":"2022-09-05","DECAY_DATE":null,"OBJECT_ID":"2022-107H","OBJECT_NAME":"STARLINK-4667","MEAN_ANOMALY":"265.7269","EPHEMERIS_TYPE":"0","INCLINATION":"53.2180","OBJECT_TYPE":"PAYLOAD","REV_AT_EPOCH":"3208","PERIAPSIS":"539.006","MEAN_MOTION_DDOT":"0.0000000000000","BSTAR":"-0.00004136600000","FILE":"3875976","SEMIMAJOR_AXIS":"6917.891","CENTER_NAME":"EARTH","MEAN_MOTION_DOT":"-0.00000946","REF_FRAME":"TEME","TLE_LINE1":"1 53707U 22107H   23090.07348605 -.00000946  00000-0 -41366-4 0  9996","RA_OF_ASC_NODE":"13.2715","SITE":"AFETR","RCS_SIZE":"LARGE","CLASSIFICATION_TYPE":"U","PERIOD":"95.438","ELEMENT_SET_NO":"999","EPOCH":"2023-03-31T01:45:49.194720","TIME_SYSTEM":"UTC","TLE_LINE2":"2 53707  53.2180  13.2715 0001084  94.3847 265.7269 15.08836534 32083","ARG_OF_PERICENTER":"94.3847","MEAN_MOTION":"15.08836534","ECCENTRICITY":"0.00010840","GP_ID":"229194100","MEAN_ELEMENT_THEORY":"SGP4"},{"ELEMENT_SET_NO":"999","EPOCH":"2023-03-31T04:05:01.566528","TIME_SYSTEM":"UTC","TLE_LINE2":"2 53708  53.2164  13.1658 0001208 121.3767 238.7344 15.08888125 32099","ARG_OF_PERICENTER":"121.3767","MEAN_MOTION":"15.08888125","GP_ID":"229208014","ECCENTRICITY":"0.00012080","MEAN_ELEMENT_THEORY":"SGP4","REF_FRAME":"TEME","TLE_LINE1":"1 53708U 22107J   23090.17015702  .00054982  00000-0  34414-2 0  9998","RA_OF_ASC_NODE":"13.1658","SITE":"AFETR","RCS_SIZE":"LARGE","CLASSIFICATION_TYPE":"U","PERIOD":"95.435","OBJECT_TYPE":"PAYLOAD","REV_AT_EPOCH":"3209","PERIAPSIS":"538.763","MEAN_MOTION_DDOT":"0.0000000000000","BSTAR":"0.00344140000000","FILE":"3876587","SEMIMAJOR_AXIS":"6917.733","CENTER_NAME":"EARTH","MEAN_MOTION_DOT":"0.00054982","NORAD_CAT_ID":"53708","APOAPSIS":"540.434","COUNTRY_CODE":"US","LAUNCH_DATE":"2022-09-05","DECAY_DATE":null,"OBJECT_ID":"2022-107J","INCLINATION":"53.2164","OBJECT_NAME":"STARLINK-4694","MEAN_ANOMALY":"238.7344","EPHEMERIS_TYPE":"0"},{"EPOCH":"2023-03-31T05:52:10.555968","ELEMENT_SET_NO":"999","TIME_SYSTEM":"UTC","ARG_OF_PERICENTER":"93.2978","TLE_LINE2":"2 53709  53.2172  32.1861 0001248  93.2978 266.8157 15.08854648 31839","MEAN_MOTION":"15.08854648","ECCENTRICITY":"0.00012480","GP_ID":"229193592","MEAN_ELEMENT_THEORY":"SGP4","REF_FRAME":"TEME","TLE_LINE1":"1 53709U 22107K   23090.24456662  .00023032  00000-0  14599-2 0  9995","RA_OF_ASC_NODE":"32.1861","SITE":"AFETR","RCS_SIZE":"LARGE","CLASSIFICATION_TYPE":"U","PERIOD":"95.437","OBJECT_TYPE":"PAYLOAD","REV_AT_EPOCH":"3183","PERIAPSIS":"538.837","MEAN_MOTION_DDOT":"0.0000000000000","BSTAR":"0.00145990000000","FILE":"3875976","SEMIMAJOR_AXIS":"6917.836","CENTER_NAME":"EARTH","MEAN_MOTION_DOT":"0.00023032","NORAD_CAT_ID":"53709","APOAPSIS":"540.564","COUNTRY_CODE":"US","LAUNCH_DATE":"2022-09-05","DECAY_DATE":null,"OBJECT_ID":"2022-107K","INCLINATION":"53.2172","EPHEMERIS_TYPE":"0","OBJECT_NAME":"STARLINK-4685","MEAN_ANOMALY":"266.8157"},{"MEAN_MOTION":"15.08835953","GP_ID":"229208006","ECCENTRICITY":"0.00015900","MEAN_ELEMENT_THEORY":"SGP4","ELEMENT_SET_NO":"999","EPOCH":"2023-03-31T20:26:34.204992","TIME_SYSTEM":"UTC","ARG_OF_PERICENTER":"99.0686","TLE_LINE2":"2 53711  53.2180  29.5750 0001590  99.0686 261.0486 15.08835953 31928","RCS_SIZE":"LARGE","CLASSIFICATION_TYPE":"U","PERIOD":"95.438","REF_FRAME":"TEME","TLE_LINE1":"1 53711U 22107M   23090.85178478  .00010567  00000-0  68108-3 0  9996","RA_OF_ASC_NODE":"29.5750","SITE":"AFETR","MEAN_MOTION_DDOT":"0.0000000000000","BSTAR":"0.00068108000000","FILE":"3876587","SEMIMAJOR_AXIS":"6917.893","CENTER_NAME":"EARTH","MEAN_MOTION_DOT":"0.00010567","OBJECT_TYPE":"PAYLOAD","REV_AT_EPOCH":"3192","PERIAPSIS":"538.658","COUNTRY_CODE":"US","LAUNCH_DATE":"2022-09-05","DECAY_DATE":null,"OBJECT_ID":"2022-107M","OBJECT_NAME":"STARLINK-4627","INCLINATION":"53.2180","MEAN_ANOMALY":"261.0486","EPHEMERIS_TYPE":"0","NORAD_CAT_ID":"53711","APOAPSIS":"540.858"},{"APOAPSIS":"540.604","NORAD_CAT_ID":"53712","DECAY_DATE":null,"LAUNCH_DATE":"2022-09-05","COUNTRY_CODE":"US","OBJECT_NAME":"STARLINK-4683","MEAN_ANOMALY":"284.6363","EPHEMERIS_TYPE":"0","INCLINATION":"53.2169","OBJECT_ID":"2022-107N","REV_AT_EPOCH":"3181","OBJECT_TYPE":"PAYLOAD","PERIAPSIS":"538.822","FILE":"3875976","BSTAR":"0.00119380000000","MEAN_MOTION_DDOT":"0.0000000000000","MEAN_MOTION_DOT":"0.00018768","CENTER_NAME":"EARTH","SEMIMAJOR_AXIS":"6917.848","TLE_LINE1":"1 53712U 22107N   23090.11672414  .00018768  00000-0  11938-2 0  9994","REF_FRAME":"TEME","SITE":"AFETR","RA_OF_ASC_NODE":"32.8184","RCS_SIZE":"LARGE","PERIOD":"95.437","CLASSIFICATION_TYPE":"U","TIME_SYSTEM":"UTC","ELEMENT_SET_NO":"999","EPOCH":"2023-03-31T02:48:04.965696","TLE_LINE2":"2 53712  53.2169  32.8184 0001288  75.4772 284.6363 15.08850537 31810","ARG_OF_PERICENTER":"75.4772","MEAN_MOTION":"15.08850537","MEAN_ELEMENT_THEORY":"SGP4","ECCENTRICITY":"0.00012880","GP_ID":"229194095"}];
